{
    "links": {
        "self": "http://www.neowsapp.com/rest/v1/neo/3092277?api_key=iIulBulltgU6a56xZRHN4H3l9WmuAYTsLGpBGhQ2"
    },
    "id": "3092277",
    "neo_reference_id": "3092277",
    "name": "(2000 WS28)",
    "designation": "2000 WS28",
    "nasa_jpl_url": "http://ssd.jpl.nasa.gov/sbdb.cgi?sstr=3092277",
    "absolute_magnitude_h": 23.4,
    "estimated_diameter": {
        "kilometers": {
            "estimated_diameter_min": 0.0555334912,
            "estimated_diameter_max": 0.1241766613
        },
        "meters": {
            "estimated_diameter_min": 55.5334911581,
            "estimated_diameter_max": 124.1766612574
        },
        "miles": {
            "estimated_diameter_min": 0.0345069009,
            "estimated_diameter_max": 0.0771597762
        },
        "feet": {
            "estimated_diameter_min": 182.1964991311,
            "estimated_diameter_max": 407.4037573197
        }
    },
    "is_potentially_hazardous_asteroid": false,
    "close_approach_data": [
        {
            "close_approach_date": "2000-11-23",
            "close_approach_date_full": "2000-Nov-23 07:15",
            "epoch_date_close_approach": 974963700000,
            "relative_velocity": {
                "kilometers_per_second": "12.3563255291",
                "kilometers_per_hour": "44482.7719046549",
                "miles_per_hour": "27639.8645759785"
            },
            "miss_distance": {
                "astronomical": "0.029657903",
                "lunar": "11.536924267",
                "kilometers": "4436759.11746661",
                "miles": "2756874.277634818"
            },
            "orbiting_body": "Earth"
        }
    ],
    "orbital_data": {
        "orbit_id": "11",
        "orbit_determination_date": "2017-04-06 09:16:42",
        "first_observation_date": "2000-11-20",
        "last_observation_date": "2000-11-23",
        "data_arc_in_days": 3,
        "observations_used": 11,
        "orbit_uncertainty": "9",
        "minimum_orbit_intersection": ".0170871",
        "jupiter_tisserand_invariant": "3.552",
        "epoch_osculation": "2451870.5",
        "eccentricity": ".5651150409809977",
        "semi_major_axis": "2.062289105571944",
        "inclination": "7.746331379401887",
        "ascending_node_longitude": "57.72506487302431",
        "orbital_period": "1081.739648965192",
        "perihelion_distance": ".8968585131619898",
        "perihelion_argument": "49.84926464134781",
        "aphelion_distance": "3.227719697981899",
        "perihelion_time": "2451905.198585252223",
        "mean_anomaly": "348.4524056201972",
        "mean_motion": ".332797268126745",
        "equinox": "J2000",
        "orbit_class": {
            "orbit_class_type": "APO",
            "orbit_class_description": "Near-Earth asteroid orbits which cross the Earth’s orbit similar to that of 1862 Apollo",
            "orbit_class_range": "a (semi-major axis) > 1.0 AU; q (perihelion) < 1.017 AU"
        }
    },
    "is_sentry_object": false
}